     2.10           G: GLONASS NAV DATA                     RINEX VERSION / TYPE
teqc  2015Jun23                         20210401 02:25:47UTCPGM / RUN BY / DATE
Linux 2.4.21-27.ELsmp|Opteron|gcc -static|Linux x86_64|=+   COMMENT
  2021     3    24    6.519258022308D-09                    CORR TO SYSTEM TIME
                                                            END OF HEADER
14 21  3 25  9 45  0.0 6.239023059607D-05 0.000000000000D+00 3.420000000000D+04
    3.420093261719D+03-6.812820434570D-01-0.000000000000D+00 0.000000000000D+00
    1.768170214844D+04 2.377787590027D+00-9.313225746155D-10-7.000000000000D+00
    1.806533251953D+04-2.199881553650D+00-1.862645149231D-09 0.000000000000D+00
17 21  3 25  9 45  0.0 4.108538851142D-04 2.728484105319D-12 3.420000000000D+04
    1.524170410156D+04-2.024755477905D-01 2.793967723846D-09 0.000000000000D+00
    2.006228076172D+04-5.680608749390D-01-9.313225746155D-10 4.000000000000D+00
    4.096821777344D+03 3.540637969971D+00-9.313225746155D-10 0.000000000000D+00
24 21  3 25  9 45  0.0 3.631878644228D-05 1.818989403546D-12 3.420000000000D+04
    3.016675292969D+03-1.581627845764D+00-0.000000000000D+00 0.000000000000D+00
    1.705703271484D+04-2.019908905029D+00-9.313225746155D-10 2.000000000000D+00
    1.874552441406D+04 2.093829154968D+00-1.862645149231D-09 0.000000000000D+00
24 21  3 25 10 15  0.0 3.631971776485D-05 1.818989403546D-12 3.600000000000D+04
   -3.739423828125D+02-2.167423248291D+00-1.862645149231D-09 0.000000000000D+00
    1.336483935547D+04-2.036089897156D+00-9.313225746155D-10 2.000000000000D+00
    2.174254541016D+04 1.214648246765D+00-1.862645149231D-09 0.000000000000D+00
 1 21  3 25 10 15  0.0 7.688440382481D-05 0.000000000000D+00 3.600000000000D+04
   -2.403624023438D+04 1.630182266235D-01-4.656612873077D-09 0.000000000000D+00
    8.471005371094D+03 9.158039093018D-02-0.000000000000D+00 1.000000000000D+00
    8.881997070312D+02 3.559562683105D+00 1.862645149231D-09 0.000000000000D+00
 2 21  3 25 10 15  0.0 4.721470177174D-04 9.094947017729D-13 3.600000000000D+04
   -1.227920703125D+04-2.309004783630D+00-9.313225746155D-10 0.000000000000D+00
    1.319261425781D+04 9.043884277344D-01-9.313225746155D-10-4.000000000000D+00
   -1.803410595703D+04 2.222781181335D+00 2.793967723846D-09 0.000000000000D+00
12 21  3 25 10 15  0.0 2.154028043151D-04 2.728484105319D-12 3.600000000000D+04
   -1.148674755859D+04 5.612373352051D-01-0.000000000000D+00 0.000000000000D+00
    1.292734619141D+04-2.509452819824D+00-9.313225746155D-10-1.000000000000D+00
   -1.874045800781D+04-2.070461273193D+00 2.793967723846D-09 0.000000000000D+00
13 21  3 25 10 15  0.0-5.249027162790D-05-0.000000000000D+00 3.600000000000D+04
   -6.341553222656D+03 2.522277832031D-01-9.313225746155D-10 0.000000000000D+00
    2.433909423828D+04-5.477876663208D-01-1.862645149231D-09-2.000000000000D+00
   -4.281393066406D+03-3.504544258118D+00 9.313225746155D-10 0.000000000000D+00
14 21  3 25 10 15  0.0 6.239116191864D-05 0.000000000000D+00 3.600000000000D+04
    2.624085449219D+03-2.226753234863D-01-0.000000000000D+00 0.000000000000D+00
    2.150770800781D+04 1.831645011902D+00-1.862645149231D-09-7.000000000000D+00
    1.345833691406D+04-2.885802268982D+00-9.313225746155D-10 0.000000000000D+00
17 21  3 25 10 15  0.0 4.108604043722D-04 2.728484105319D-12 3.600000000000D+04
    1.424489794922D+04-9.216537475586D-01 1.862645149231D-09 0.000000000000D+00
    1.854904882812D+04-1.073234558105D+00-9.313225746155D-10 4.000000000000D+00
    1.022973632812D+04 3.229561805725D+00-1.862645149231D-09 0.000000000000D+00
12 21  3 25 10 45  0.0 2.154074609280D-04 2.728484105319D-12 3.780000000000D+04
   -1.077106103516D+04 2.098560333252D-01-0.000000000000D+00 0.000000000000D+00
    7.958535644531D+03-2.968098640442D+00-9.313225746155D-10-1.000000000000D+00
   -2.169385302734D+04-1.189672470093D+00 2.793967723846D-09 0.000000000000D+00
 1 21  3 25 10 45  0.0 7.688533514738D-05 0.000000000000D+00 3.780000000000D+04
   -2.302895410156D+04 9.315519332886D-01-5.587935447693D-09 0.000000000000D+00
    8.277085937500D+03-3.396730422974D-01 0.000000000000D+00 1.000000000000D+00
    7.178186035156D+03 3.383892059326D+00 9.313225746155D-10 0.000000000000D+00
 2 21  3 25 10 45  0.0 4.721498116851D-04 9.094947017729D-13 3.780000000000D+04
   -1.580246630859D+04-1.584264755249D+00-1.862645149231D-09 0.000000000000D+00
    1.489460156250D+04 9.454822540283D-01-9.313225746155D-10-4.000000000000D+00
   -1.338706103516D+04 2.906875610352D+00 2.793967723846D-09 0.000000000000D+00
13 21  3 25 10 45  0.0-5.249120295048D-05-0.000000000000D+00 3.780000000000D+04
   -5.898644042969D+03 1.997413635254D-01-9.313225746155D-10 0.000000000000D+00
    2.257022460938D+04-1.405278205872D+00-1.862645149231D-09-2.000000000000D+00
   -1.034272753906D+04-3.186606407166D+00 1.862645149231D-09 0.000000000000D+00
14 21  3 25 10 45  0.0 6.239209324121D-05 0.000000000000D+00 3.780000000000D+04
    2.522640625000D+03 7.726860046387D-02-9.313225746155D-10 0.000000000000D+00
    2.414803759766D+04 1.073988914490D+00-1.862645149231D-09-7.000000000000D+00
    7.810579589844D+03-3.348744392395D+00-0.000000000000D+00 0.000000000000D+00
17 21  3 25 10 45  0.0 4.108659923077D-04 2.728484105319D-12 3.780000000000D+04
    1.189759521484D+04-1.684037208557D+00 0.000000000000D+00 0.000000000000D+00
    1.635588427734D+04-1.317854881287D+00-9.313225746155D-10 4.000000000000D+00
    1.557337109375D+04 2.669342041016D+00-1.862645149231D-09 0.000000000000D+00
24 21  3 25 10 45  0.0 3.632251173258D-05 1.818989403546D-12 3.792000000000D+04
   -4.689203613281D+03-2.592568397522D+00-2.793967723846D-09 0.000000000000D+00
    9.881926757812D+03-1.795625686646D+00 0.000000000000D+00 2.000000000000D+00
    2.306195605469D+04 2.418708801270D-01-1.862645149231D-09 0.000000000000D+00
 3 21  3 25 10 45  0.0 3.301631659269D-05 0.000000000000D+00 3.810000000000D+04
    9.069125976562D+02-2.768173217773D+00 9.313225746155D-10 0.000000000000D+00
    1.160712060547D+04 1.426319122314D+00-1.862645149231D-09 5.000000000000D+00
   -2.265523193359D+04 6.139392852783D-01 1.862645149231D-09 0.000000000000D+00
15 21  3 25 10 45  0.0 1.047318801284D-04-0.000000000000D+00 3.912000000000D+04
    9.294181640625D+03-8.886337280273D-02-0.000000000000D+00 0.000000000000D+00
    1.159226269531D+04 2.836393356323D+00-9.313225746155D-10 0.000000000000D+00
    2.074922021484D+04-1.545438766479D+00-1.862645149231D-09 0.000000000000D+00
 1 21  3 25 11 15  0.0 7.688626646996D-05 0.000000000000D+00 3.960000000000D+04
   -2.079815625000D+04 1.508693695068D+00-4.656612873077D-09 0.000000000000D+00
    7.153391601562D+03-9.278669357300D-01 1.862645149231D-09 1.000000000000D+00
    1.291274316406D+04 2.946459770203D+00 0.000000000000D+00 0.000000000000D+00
 3 21  3 25 11 15  0.0 3.301631659269D-05 0.000000000000D+00 3.960000000000D+04
   -3.695160156250D+03-2.309064865112D+00-0.000000000000D+00 0.000000000000D+00
    1.441606884766D+04 1.658838272095D+00-9.313225746155D-10 5.000000000000D+00
   -2.068542138672D+04 1.560285568237D+00 2.793967723846D-09 0.000000000000D+00
 2 21  3 25 11 15  0.0 4.721535369754D-04 9.094947017729D-13 3.960000000000D+04
   -1.793929443359D+04-7.876663208008D-01-3.725290298462D-09 0.000000000000D+00
    1.644115087891D+04 7.294359207153D-01-0.000000000000D+00-4.000000000000D+00
   -7.705064941406D+03 3.365380287170D+00 2.793967723846D-09 0.000000000000D+00
13 21  3 25 11 15  0.0-5.249213427305D-05-0.000000000000D+00 3.960000000000D+04
   -5.756305664062D+03-7.439517974854D-02-9.313225746155D-10 0.000000000000D+00
    1.935774755859D+04-2.133996009827D+00-9.313225746155D-10-2.000000000000D+00
   -1.560528076172D+04-2.622811317444D+00 2.793967723846D-09 0.000000000000D+00
14 21  3 25 11 15  0.0 6.239209324121D-05 0.000000000000D+00 3.960000000000D+04
    2.769397460938D+03 1.571846008301D-01-9.313225746155D-10 0.000000000000D+00
    2.530434765625D+04 2.007427215576D-01-1.862645149231D-09-7.000000000000D+00
    1.558635742188D+03-3.552731513977D+00 0.000000000000D+00 0.000000000000D+00
15 21  3 25 11 15  0.0 1.047318801284D-04-0.000000000000D+00 3.960000000000D+04
    9.488928222656D+03 2.822294235229D-01-0.000000000000D+00 0.000000000000D+00
    1.628691455078D+04 2.337233543396D+00-9.313225746155D-10 0.000000000000D+00
    1.720238232422D+04-2.369975090027D+00-1.862645149231D-09 0.000000000000D+00
17 21  3 25 11 15  0.0 4.108725115657D-04 2.728484105319D-12 3.960000000000D+04
    8.226327148438D+03-2.373408317566D+00-9.313225746155D-10 0.000000000000D+00
    1.396848632812D+04-1.291182518005D+00-9.313225746155D-10 4.000000000000D+00
    1.971545556641D+04 1.903134346008D+00-1.862645149231D-09 0.000000000000D+00
13 21  3 25 11 45  0.0-5.249306559563D-05-0.000000000000D+00 4.140000000000D+04
   -6.262244140625D+03-5.071439743042D-01-9.313225746155D-10 0.000000000000D+00
    1.502223925781D+04-2.639875411987D+00-9.313225746155D-10-2.000000000000D+00
   -1.966326074219D+04-1.856888771057D+00 2.793967723846D-09 0.000000000000D+00
 2 21  3 25 11 45  0.0 4.721563309431D-04 1.818989403546D-12 4.140000000000D+04
   -1.866424804688D+04-3.432178497314D-02-4.656612873077D-09 0.000000000000D+00
    1.737107568359D+04 2.657155990601D-01 9.313225746155D-10-4.000000000000D+00
   -1.428246582031D+03 3.563641548157D+00 1.862645149231D-09 0.000000000000D+00
 3 21  3 25 11 45  0.0 3.301724791527D-05 0.000000000000D+00 4.140000000000D+04
   -7.303552734375D+03-1.680469512939D+00-1.862645149231D-09 0.000000000000D+00
    1.743190478516D+04 1.647664070129D+00-9.313225746155D-10 5.000000000000D+00
   -1.711168359375D+04 2.384499549866D+00 2.793967723846D-09 0.000000000000D+00
14 21  3 25 11 45  0.0 6.239302456379D-05 0.000000000000D+00 4.140000000000D+04
    2.943375976562D+03-3.263473510742D-03-1.862645149231D-09 0.000000000000D+00
    2.486966015625D+04-6.742677688599D-01-1.862645149231D-09-7.000000000000D+00
   -4.813891113281D+03-3.481835365295D+00 9.313225746155D-10 0.000000000000D+00
